{"type":"FeatureCollection","features":[{"type":"Feature","properties":{"name":"Berlin","country":"DE"},"geometry":{"type":"MultiPolygon","coordinates":[[[[13.088345,52.4196325],[13.0907635,52.4115602],[13.1096241,52.4129411],[13.1063827,52.40869],[13.1247813,52.3968694],[13.1381026,52.3978562],[13.1272922,52.3916083],[13.1310825,52.3872512],[13.1418185,52.3970996],[13.1717627,52.3956432],[13.1577955,52.3963564],[13.1592412,52.4027742],[13.1972438,52.4155376],[13.2459511,52.4211746],[13.2497798,52.4049784],[13.2742071,52.4047899],[13.2967517,52.4162514],[13.3120638,52.3991062],[13.3433453,52.411724],[13.3719482,52.3937967],[13.3703524,52.3884274],[13.3872981,52.3885717],[13.3884283,52.3778616],[13.4208126,52.3761384],[13.4274477,52.3861653],[13.4187486,52.4099774],[13.4635491,52.4210797],[13.4797604,52.3959454],[13.5384314,52.4006334],[13.5354929,52.3889916],[13.5926921,52.3938149],[13.6058208,52.3736244],[13.6285136,52.381356],[13.6426777,52.3775085],[13.6471893,52.3670283],[13.6363196,52.3468193],[13.6477328,52.3382448],[13.6711913,52.3664872],[13.6922028,52.3672074],[13.6999584,52.3755917],[13.686831,52.3853033],[13.7390343,52.4073353],[13.729807,52.4163459],[13.7400963,52.4324723],[13.729727,52.4339755],[13.7263139,52.4351868],[13.7228074,52.4371442],[13.7611609,52.4377097],[13.7564462,52.4461766],[13.7290816,52.4507847],[13.7012591,52.4682238],[13.7046132,52.4547613],[13.6954345,52.464186],[13.648307,52.4787311],[13.62534,52.4736998],[13.6227589,52.4664541],[13.6113673,52.470652],[13.6297148,52.4930366],[13.6240057,52.4941989],[13.6324806,52.5108799],[13.6569123,52.5298379],[13.6256871,52.5301844],[13.6248253,52.5380997],[13.6373759,52.5422554],[13.5863822,52.5497848],[13.5815424,52.5711074],[13.5471255,52.5878538],[13.5081184,52.5921389],[13.4971188,52.6066677],[13.5058558,52.6257537],[13.5178192,52.6295666],[13.523022,52.6450365],[13.4907625,52.6547958],[13.4884252,52.6707899],[13.4745877,52.6680652],[13.4794873,52.6755087],[13.450782,52.6626681],[13.4735092,52.6565299],[13.4699645,52.6518641],[13.4408204,52.6492654],[13.4243513,52.6354682],[13.3945552,52.647556],[13.3892033,52.6376251],[13.3763755,52.6283786],[13.3576479,52.6229807],[13.3026102,52.6271913],[13.3102758,52.6300081],[13.3094061,52.6427257],[13.3004321,52.6535051],[13.3101003,52.6573953],[13.2827678,52.6607411],[13.2838319,52.6411189],[13.2621503,52.6406872],[13.2642342,52.6268645],[13.2205414,52.6283185],[13.2016215,52.6065502],[13.2173951,52.5874783],[13.1645286,52.5987969],[13.1289619,52.5873048],[13.1324743,52.5796069],[13.1496095,52.5833597],[13.1535443,52.5732555],[13.1455742,52.5527201],[13.1304676,52.5559749],[13.1173799,52.51706],[13.143181,52.5196958],[13.1688227,52.5092271],[13.1176933,52.4773203],[13.109295,52.4506349],[13.1231531,52.4387089],[13.088345,52.4196325]],[[13.4339193,52.6419788],[13.4336264,52.6421286],[13.4340492,52.6421656],[13.4339193,52.6419788]]],[[[13.3927442,52.6456438],[13.3927858,52.6454947],[13.3929209,52.6456661],[13.3927442,52.6456438]]],[[[13.3930208,52.6460056],[13.393058,52.6459089],[13.3930902,52.6460336],[13.3930208,52.6460056]]],[[[13.5037765,52.6192121],[13.5054362,52.6196852],[13.5054513,52.6198896],[13.5037765,52.6192121]]]]}},{"type":"Feature","properties":{"name":"Hamburg","country":"DE"},"geometry":{"type":"MultiPolygon","coordinates":[[[[8.1044993,54.02505],[8.429328,53.8932944],[8.5338059,53.8852572],[8.5760454,53.8450037],[8.5606667,53.9050833],[8.5456774,53.9300833],[8.394369,54.02765],[8.1044993,54.02505]]],[[[9.7301155,53.557642],[9.7743919,53.5543254],[9.7655587,53.5410972],[9.7812903,53.5186423],[9.7710683,53.5218512],[9.7635785,53.5082559],[9.7846248,53.5000117],[9.7819927,53.4923176],[9.8027631,53.4938403],[9.7998062,53.469426],[9.8618312,53.4296174],[9.8622201,53.4399933],[9.898744,53.4579631],[9.9171809,53.4465573],[9.9229282,53.4363614],[9.9109366,53.4140444],[9.9421349,53.4210198],[9.9438393,53.4294535],[9.9833477,53.4146204],[9.9959028,53.4258765],[10.0292108,53.4352988],[10.0146452,53.4420182],[10.022244,53.4475535],[10.0453939,53.4463998],[10.0419722,53.4565508],[10.0516158,53.4639106],[10.0849588,53.4507873],[10.1094255,53.4263693],[10.1369983,53.4219363],[10.1655462,53.399327],[10.2335146,53.3952678],[10.2601655,53.4184728],[10.3178412,53.4353027],[10.3144784,53.4397252],[10.3252805,53.4498342],[10.3122663,53.45224],[10.3096772,53.4430797],[10.3007275,53.4427308],[10.264414,53.4750965],[10.2385422,53.4825453],[10.2368508,53.496336],[10.218276,53.4992345],[10.2238906,53.5056233],[10.2104116,53.5199281],[10.1878449,53.5115062],[10.1623971,53.5224558],[10.168776,53.5373854],[10.1518741,53.5354775],[10.1484384,53.5459771],[10.1604869,53.5609663],[10.1477511,53.5642493],[10.1524664,53.5779107],[10.161866,53.5857867],[10.2012914,53.5839951],[10.1888537,53.6130726],[10.2219942,53.6336457],[10.1896394,53.6383737],[10.1988518,53.6467302],[10.1958919,53.6547514],[10.139962,53.6803593],[10.1589354,53.6902631],[10.1569421,53.7045133],[10.1722961,53.7124042],[10.1815564,53.7089],[10.1917444,53.7226967],[10.1936896,53.7310028],[10.16775,53.7393165],[10.1211309,53.7131603],[10.1157539,53.7160823],[10.0819849,53.7204444],[10.0692406,53.7109394],[10.0774659,53.6994178],[10.0603779,53.6883088],[10.0692731,53.6795252],[9.9996163,53.6815178],[9.9858091,53.6482375],[9.9068779,53.6524844],[9.8891982,53.6228692],[9.8248382,53.5842314],[9.7913232,53.6012653],[9.7962617,53.6103233],[9.7705486,53.6160312],[9.7712678,53.6314046],[9.7345486,53.5825593],[9.7425212,53.5779765],[9.7301155,53.557642]],[[10.1161288,53.7138147],[10.1169046,53.7141972],[10.1169326,53.7138537],[10.1161288,53.7138147]]],[[[10.1698569,53.6691301],[10.1689938,53.6682413],[10.1703943,53.6687563],[10.1698569,53.6691301]]]]}},{"type":"Feature","properties":{"name":"München","country":"DE"},"geometry":{"type":"MultiPolygon","coordinates":[[[[11.360777,48.1580704],[11.389144,48.1479327],[11.3944236,48.1255105],[11.4299801,48.1375559],[11.4636931,48.129926],[11.4629691,48.1052549],[11.4748504,48.1046058],[11.4709217,48.0831868],[11.503558,48.0692942],[11.5087578,48.0616244],[11.5334768,48.0776817],[11.5423719,48.0778567],[11.5454241,48.0681278],[11.5539743,48.0850231],[11.5869189,48.0938795],[11.5926218,48.0850713],[11.6237531,48.08811],[11.685651,48.0774915],[11.6827716,48.0918035],[11.7145946,48.1108471],[11.6941881,48.1231033],[11.7119885,48.1229767],[11.7122674,48.1333845],[11.7229099,48.137117],[11.710117,48.14818],[11.6781624,48.144285],[11.673925,48.15647],[11.6960995,48.1742858],[11.6919782,48.1825288],[11.6622045,48.1828884],[11.6655252,48.1761816],[11.6458544,48.1736881],[11.627706,48.1773044],[11.6504917,48.2133803],[11.6389922,48.2259624],[11.6070763,48.2281597],[11.6115803,48.2191392],[11.5874666,48.2134767],[11.5823007,48.2285636],[11.5468314,48.227114],[11.5011968,48.2481162],[11.4906903,48.2454237],[11.4910806,48.2230962],[11.4576008,48.2087996],[11.3908298,48.2004624],[11.3932585,48.1844601],[11.3711004,48.1782815],[11.360777,48.1580704]]],[[[11.490724,48.0742575],[11.4903024,48.0737742],[11.4909805,48.0741023],[11.490724,48.0742575]]],[[[11.5563954,48.0804318],[11.5569527,48.0793801],[11.5577562,48.0795803],[11.5563954,48.0804318]]]]}},{"type":"Feature","properties":{"name":"Köln","country":"DE"},"geometry":{"type":"Polygon","coordinates":[[[6.7725303,51.0616154],[6.7981985,51.0367319],[6.8205436,51.0385316],[6.8415312,51.0247112],[6.8338701,51.0178693],[6.8447836,51.004067],[6.8353307,50.9997649],[6.8446235,50.9888203],[6.8187202,50.965244],[6.8242486,50.9570462],[6.8094997,50.9485349],[6.8144233,50.9406017],[6.8051526,50.9386782],[6.8418964,50.9260217],[6.8469553,50.9097479],[6.8604528,50.9038231],[6.8799968,50.9115756],[6.9199838,50.8932448],[6.9128583,50.8826135],[6.9232481,50.8654289],[6.9163574,50.8585732],[6.9304321,50.8374949],[6.9449227,50.8454279],[6.9546551,50.8347274],[6.973676,50.8441323],[7.0155485,50.8377619],[7.0511236,50.8500948],[7.0613795,50.8440916],[7.0625234,50.8304399],[7.0793186,50.8307691],[7.1618761,50.8693877],[7.1375876,50.8812594],[7.133527,50.9034848],[7.1446711,50.9463937],[7.1147837,50.9408384],[7.0865962,50.9573306],[7.1011337,50.9679588],[7.1000625,50.9809817],[7.0690361,50.9894836],[7.0760583,51.0019915],[7.0617856,51.0133315],[7.068384,51.01835],[7.0216839,51.0160047],[7.0092598,51.0226124],[6.996362,51.0118047],[6.9755152,51.0111245],[6.9623886,51.0330412],[6.8950583,51.0659573],[6.859926,51.0739206],[6.8485717,51.0849743],[6.8245345,51.0744014],[6.8337265,51.05979],[6.8138036,51.0458912],[6.7912874,51.0674058],[6.7725303,51.0616154]]]}},{"type":"Feature","properties":{"name":"Frankfurt","country":"DE"},"geometry":{"type":"Polygon","coordinates":[[[8.4727605,50.0998225],[8.5203882,50.0617683],[8.5269962,50.0662523],[8.5256844,50.0838616],[8.5497605,50.0668543],[8.5532836,50.0489327],[8.5197971,50.0368454],[8.5199879,50.0207793],[8.5630137,50.0266332],[8.5761531,50.0153529],[8.5920142,50.0177041],[8.5984757,50.042253],[8.6063904,50.039114],[8.6246212,50.0550851],[8.7249626,50.0617284],[8.7321899,50.0822204],[8.7502089,50.0964895],[8.7255224,50.1084935],[8.7484585,50.1156488],[8.7798147,50.1110552],[8.7691754,50.131644],[8.7849123,50.1393715],[8.7834324,50.1584591],[8.8004049,50.1712442],[8.7687862,50.1797941],[8.7425621,50.1640853],[8.7230075,50.1634759],[8.7019888,50.1804801],[8.7110276,50.1885029],[8.7054515,50.1917605],[8.729617,50.202588],[8.7349535,50.2155599],[8.7092821,50.2271424],[8.7017501,50.2170877],[8.6691258,50.2169527],[8.5879417,50.1681976],[8.5897664,50.1592081],[8.6027339,50.1569932],[8.5933329,50.1397842],[8.5329648,50.1152988],[8.5135407,50.1219196],[8.4996575,50.1067182],[8.4778109,50.1103057],[8.4809558,50.1052796],[8.4727605,50.0998225]]]}},{"type":"Feature","properties":{"name":"Stuttgart","country":"DE"},"geometry":{"type":"Polygon","coordinates":[[[9.0386007,48.741318],[9.0666221,48.7341538],[9.062808,48.7273789],[9.1003348,48.7116724],[9.1695052,48.7053724],[9.2015829,48.6926511],[9.2449713,48.6945542],[9.2397677,48.7115074],[9.2302489,48.7097116],[9.2114766,48.7265412],[9.2143324,48.7313752],[9.2615849,48.7434063],[9.2757292,48.756485],[9.2760563,48.7699355],[9.3160228,48.7782175],[9.2986392,48.7792425],[9.2900671,48.79167],[9.2465901,48.7950916],[9.2567539,48.8120817],[9.2413643,48.8262517],[9.2460906,48.8341654],[9.2371672,48.8419978],[9.244139,48.8472442],[9.2328979,48.8500802],[9.2303795,48.8638639],[9.2169182,48.8663994],[9.2059174,48.8612696],[9.2076705,48.852754],[9.1900022,48.8476645],[9.1410059,48.8619084],[9.1337755,48.8576257],[9.1431604,48.8448126],[9.1336444,48.8439168],[9.1381626,48.8280421],[9.113978,48.8234961],[9.0935575,48.8355234],[9.0857264,48.8309182],[9.07669,48.814565],[9.0860646,48.804017],[9.0752586,48.787157],[9.0883223,48.7820005],[9.0758558,48.7671915],[9.0773896,48.7560039],[9.0386007,48.741318]]]}},{"type":"Feature","properties":{"name":"Düsseldorf","country":"DE"},"geometry":{"type":"Polygon","coordinates":[[[6.6888147,51.2294946],[6.723549,51.225936],[6.7372222,51.1833591],[6.7933206,51.1808697],[6.7989588,51.1444762],[6.8144692,51.143874],[6.8489276,51.1622432],[6.8574673,51.1558577],[6.8482353,51.1380638],[6.8543338,51.1275804],[6.892703,51.1308637],[6.899043,51.1243747],[6.9251436,51.1365263],[6.8907598,51.158926],[6.898254,51.158732],[6.895421,51.1736455],[6.9145656,51.1787407],[6.9102736,51.1874201],[6.9213127,51.1926579],[6.9052403,51.2012312],[6.9105952,51.2113922],[6.8786548,51.2140708],[6.8718896,51.2226335],[6.8800593,51.2280256],[6.8710696,51.2414589],[6.9312417,51.238043],[6.9276716,51.2655722],[6.9399324,51.2725495],[6.9127822,51.2761353],[6.8959825,51.2645253],[6.8761246,51.2680026],[6.8757394,51.2746985],[6.803656,51.2791486],[6.8069465,51.2995763],[6.8012365,51.3010049],[6.8174571,51.3209359],[6.8025974,51.328427],[6.8091253,51.3374477],[6.8058745,51.3504065],[6.793815,51.35222],[6.7918147,51.3432571],[6.781502,51.3425529],[6.7472875,51.3523955],[6.7144938,51.3333827],[6.7345829,51.3125751],[6.7025871,51.2711715],[6.7265499,51.2566003],[6.6888147,51.2294946]]]}},{"type":"Feature","properties":{"name":"Leipzig","country":"DE"},"geometry":{"type":"Polygon","coordinates":[[[12.2366519,51.3197803],[12.2503179,51.2977728],[12.2611533,51.2985636],[12.2622307,51.2894557],[12.281317,51.2808149],[12.2500086,51.2860967],[12.2474717,51.265875],[12.2589041,51.2512565],[12.2516545,51.2381704],[12.3132507,51.242781],[12.3233284,51.2695769],[12.3453201,51.2687422],[12.3406924,51.2708422],[12.3535523,51.2832006],[12.3511648,51.2964572],[12.3668332,51.2867317],[12.3737485,51.2936325],[12.3915367,51.2795402],[12.4470672,51.2828685],[12.4480323,51.2682929],[12.4880857,51.2576259],[12.4935053,51.2602498],[12.4842028,51.2644988],[12.5004056,51.2834276],[12.4966278,51.2891738],[12.50533,51.3033082],[12.5388324,51.3059361],[12.5313478,51.3172573],[12.5425373,51.3241556],[12.526657,51.3312631],[12.5389043,51.3370831],[12.5272787,51.3480565],[12.5091068,51.3473183],[12.4988815,51.3605566],[12.4671101,51.3690525],[12.4766128,51.3824297],[12.4667032,51.3831422],[12.4633371,51.3913441],[12.4710268,51.4033827],[12.4567553,51.4144075],[12.4616335,51.4204451],[12.4887874,51.4176373],[12.4930134,51.4311692],[12.472376,51.4323285],[12.4709171,51.4428041],[12.4411946,51.4481145],[12.4422033,51.4306081],[12.4058581,51.4288643],[12.3964472,51.4156937],[12.373531,51.4248829],[12.3600422,51.4153532],[12.2710348,51.4178669],[12.2645487,51.40221],[12.2523259,51.4036478],[12.2678399,51.3973911],[12.2566231,51.3877456],[12.2587332,51.3806342],[12.2376696,51.3727011],[12.243391,51.3711715],[12.2419677,51.3490751],[12.2597101,51.3346858],[12.2437577,51.3314683],[12.2366519,51.3197803]]]}},{"type":"Feature","properties":{"name":"Dortmund","country":"DE"},"geometry":{"type":"Polygon","coordinates":[[[7.302387,51.5076709],[7.3172546,51.5060296],[7.3235273,51.4889387],[7.3376296,51.4959977],[7.3425181,51.4835034],[7.3893683,51.4741176],[7.3890937,51.4625832],[7.4114406,51.4527939],[7.4234514,51.4316667],[7.4614685,51.436318],[7.4674385,51.4324526],[7.4651012,51.4168377],[7.4929569,51.41572],[7.5119278,51.4182672],[7.5046739,51.4268721],[7.511832,51.4334167],[7.5321521,51.4350168],[7.5385701,51.4489253],[7.5525648,51.455079],[7.5424172,51.4610209],[7.5461239,51.4664613],[7.5715721,51.4749604],[7.5840553,51.4643216],[7.5997413,51.4713238],[7.6097466,51.4797933],[7.5963514,51.4959338],[7.5964513,51.5075894],[7.6328268,51.5191655],[7.638157,51.5277026],[7.6287533,51.541645],[7.6326038,51.5496658],[7.6079854,51.5485082],[7.6062596,51.5685349],[7.5908379,51.5657692],[7.5972449,51.576184],[7.5902989,51.5832252],[7.5028408,51.5790708],[7.5038103,51.5861797],[7.4900728,51.5925161],[7.4460876,51.5795075],[7.4178843,51.5850089],[7.4260352,51.5945824],[7.4190016,51.6000415],[7.3957337,51.5871791],[7.3717623,51.5907192],[7.3682782,51.5825108],[7.3538353,51.5854777],[7.3385182,51.5767772],[7.3538373,51.5651855],[7.3564841,51.5559848],[7.3473865,51.545409],[7.363962,51.528051],[7.3156721,51.5225257],[7.302387,51.5076709]]]}},{"type":"Feature","properties":{"name":"Essen","country":"DE"},"geometry":{"type":"Polygon","coordinates":[[[6.8943442,51.4762545],[6.9172107,51.4626564],[6.9151863,51.450334],[6.9513332,51.4493151],[6.9595443,51.4394672],[6.9437918,51.4144838],[6.9432565,51.3893212],[6.9109271,51.3791517],[6.9163369,51.3746676],[6.9050932,51.3676016],[6.9249531,51.3577044],[6.925981,51.3484867],[6.964213,51.347615],[7.0173794,51.364944],[7.0358959,51.3615616],[7.0443695,51.3683699],[7.0548467,51.3622997],[7.0795885,51.3745129],[7.0903265,51.3686336],[7.1164782,51.3757631],[7.1185259,51.393818],[7.1080627,51.4064788],[7.1272746,51.4105651],[7.1376473,51.4222518],[7.1190641,51.4312888],[7.1338879,51.4421569],[7.1095557,51.4593792],[7.1131414,51.4731335],[7.0979965,51.4827506],[7.0739935,51.4828048],[7.0722866,51.4945726],[7.0575724,51.4986385],[7.050458,51.5119889],[7.0197717,51.5181025],[7.0139737,51.5324548],[6.9950901,51.5309534],[6.9877802,51.5086519],[6.9192101,51.4965008],[6.9216563,51.4914307],[6.9022176,51.4883878],[6.8943442,51.4762545]]]}},{"type":"Feature","properties":{"name":"Bremen","country":"DE"},"geometry":{"type":"MultiPolygon","coordinates":[[[[8.4815929,53.2264612],[8.5062953,53.2000212],[8.5339491,53.1868528],[8.6199286,53.1669347],[8.6306134,53.1384595],[8.6569775,53.1180778],[8.654229,53.1088996],[8.6704666,53.1024566],[8.6665183,53.0916568],[8.7039155,53.0815131],[8.7096369,53.0460291],[8.7307672,53.0337609],[8.7566247,53.039105],[8.7705645,53.0531493],[8.7778535,53.0393991],[8.8220631,53.0208541],[8.8667778,53.0217816],[8.8619665,53.0356485],[8.8663281,53.0407028],[8.8668508,53.0327771],[8.8929809,53.0141842],[8.9160835,53.0111644],[8.9358489,53.0135925],[8.9457816,53.0306066],[8.9802995,53.0468292],[8.9637339,53.0599887],[8.9611197,53.0850442],[8.99083,53.0965981],[8.9632442,53.1004308],[8.9472416,53.1161889],[8.9832813,53.1256263],[8.9447878,53.1521466],[8.9209624,53.1445316],[8.9121398,53.1325421],[8.9031609,53.1384591],[8.863219,53.131423],[8.82926,53.1642765],[8.7761597,53.1581967],[8.741568,53.1640409],[8.7432867,53.171781],[8.7288798,53.1806147],[8.7142751,53.1832662],[8.7055529,53.1758173],[8.6994273,53.1854383],[8.6761749,53.1752611],[8.6593758,53.17718],[8.6550903,53.1869751],[8.627948,53.198289],[8.5933778,53.1842081],[8.5801618,53.1931162],[8.5990987,53.2127682],[8.5789266,53.2172178],[8.5540199,53.2077822],[8.517496,53.2285462],[8.4815929,53.2264612]]],[[[8.5222183,53.591063],[8.5617155,53.548808],[8.5690605,53.5515474],[8.5639988,53.5600267],[8.5762008,53.5794179],[8.5471921,53.5838592],[8.5374781,53.5984187],[8.5222183,53.591063]]],[[[8.613366,53.1973718],[8.6155162,53.194571],[8.6166854,53.1957575],[8.613366,53.1973718]]]]}},{"type":"Feature","properties":{"name":"Dresden","country":"DE"},"geometry":{"type":"Polygon","coordinates":[[[13.5793237,51.050579],[13.605231,51.0428846],[13.6038294,51.0322926],[13.6692074,51.0350864],[13.6622982,51.030592],[13.6652795,51.0166276],[13.6810472,51.0152518],[13.6869103,51.0023446],[13.7309196,51.0101488],[13.7655056,51.0008863],[13.7709636,50.9877566],[13.7899547,50.9881366],[13.7918234,50.9773181],[13.8183475,50.9749317],[13.8586446,50.9929421],[13.8845679,50.9822444],[13.9107799,51.0003476],[13.9121196,51.0168221],[13.9379426,51.0151942],[13.9627625,51.0313114],[13.9599659,51.0520434],[13.9660626,51.0548193],[13.95345,51.0738911],[13.9415364,51.0730184],[13.9364674,51.0674652],[13.9423588,51.063848],[13.9223368,51.0609766],[13.8834423,51.0726314],[13.9110506,51.0941663],[13.8725819,51.1274279],[13.8694408,51.1358157],[13.8892683,51.1428989],[13.8796531,51.1542846],[13.8600325,51.1581104],[13.8311759,51.1453408],[13.798895,51.1697711],[13.7797256,51.1659748],[13.7703715,51.1747814],[13.7462416,51.1777202],[13.7515617,51.1587941],[13.7672648,51.1455841],[13.7558006,51.1343711],[13.7206786,51.1399399],[13.712897,51.1341035],[13.7079792,51.1119466],[13.6919085,51.111012],[13.6955813,51.1048283],[13.6882049,51.0995702],[13.7011123,51.091279],[13.6586341,51.0927898],[13.6592561,51.0926825],[13.65902,51.0925164],[13.6609214,51.0915856],[13.6628205,51.090294],[13.6639267,51.0894539],[13.6638695,51.0894161],[13.6236795,51.1026521],[13.5986889,51.0984172],[13.5919658,51.0941319],[13.5991079,51.085403],[13.5795539,51.0652048],[13.5849969,51.0566941],[13.5793237,51.050579]]]}},{"type":"Feature","properties":{"name":"Hannover","country":"DE"},"geometry":{"type":"MultiPolygon","coordinates":[[[[9.6044487,52.3970499],[9.6249094,52.3950414],[9.6446075,52.4137385],[9.6508035,52.3960815],[9.6654988,52.3983223],[9.644581,52.3822254],[9.6613979,52.3711068],[9.6499721,52.3606172],[9.6357493,52.3607694],[9.6454739,52.3513794],[9.6797502,52.3472576],[9.6831246,52.3393843],[9.6705176,52.3331625],[9.6792588,52.3129711],[9.7425671,52.336073],[9.7583986,52.3209349],[9.793312,52.3260187],[9.7984202,52.3168374],[9.8522481,52.3051373],[9.8675516,52.3095871],[9.8615243,52.322164],[9.8789857,52.3264307],[9.8753232,52.3322553],[9.8839733,52.3440669],[9.8733788,52.3497947],[9.8759574,52.3552115],[9.8962238,52.3599239],[9.8848153,52.3970931],[9.9185652,52.4039738],[9.902073,52.4147606],[9.890201,52.4099994],[9.8891884,52.4224073],[9.8504657,52.4268157],[9.838618,52.4203892],[9.8194172,52.4294031],[9.8271835,52.4328897],[9.8176771,52.4399093],[9.820745,52.4481237],[9.7711283,52.4541417],[9.762901,52.4273099],[9.7313535,52.4290453],[9.7324801,52.4233987],[9.7219747,52.4228452],[9.7171469,52.426468],[9.7231473,52.4280526],[9.6972381,52.4314553],[9.637756,52.432783],[9.6126637,52.4214502],[9.6189424,52.4064369],[9.6044487,52.3970499]],[[9.629439,52.4191518],[9.6316778,52.4204102],[9.6322417,52.419843],[9.629439,52.4191518]]],[[[9.7285505,52.4277923],[9.7253086,52.4273238],[9.7286389,52.4270596],[9.7285505,52.4277923]]]]}},{"type":"Feature","properties":{"name":"Nürnberg","country":"DE"},"geometry":{"type":"MultiPolygon","coordinates":[[[[10.9887326,49.5365366],[11.0040075,49.5226316],[10.9995213,49.5135746],[11.0286601,49.5087419],[11.0141814,49.4925668],[11.0258,49.472847],[11.0157868,49.4726799],[10.9914402,49.4360544],[11.0060076,49.4190907],[11.0225311,49.4182336],[11.0153804,49.4107792],[11.0259601,49.4031388],[11.024301,49.3939097],[10.9980151,49.3879989],[10.9937138,49.3765974],[11.0333687,49.3718607],[11.0452472,49.3602229],[11.0386446,49.3510376],[11.0454546,49.3526738],[11.0695802,49.3314339],[11.0911652,49.3424412],[11.0919048,49.3499841],[11.1222062,49.3574444],[11.0999876,49.3721254],[11.1228189,49.3686246],[11.1004972,49.3770451],[11.1108146,49.3924773],[11.1893861,49.3898882],[11.1751685,49.412861],[11.1760824,49.4136516],[11.1853532,49.4085229],[11.1950384,49.4058153],[11.1764773,49.4139954],[11.2134902,49.4205945],[11.1797316,49.4286785],[11.1767083,49.4145854],[11.1325785,49.4323186],[11.1361579,49.4384986],[11.1284537,49.442266],[11.1552262,49.446637],[11.15286,49.4533156],[11.1389829,49.4507969],[11.1367352,49.4528725],[11.1884572,49.4674863],[11.1798666,49.475968],[11.1502926,49.4731039],[11.1429329,49.4874577],[11.1229527,49.4910494],[11.1201817,49.5128816],[11.0958852,49.5077348],[11.0972643,49.5009906],[11.0579851,49.5052204],[11.0668935,49.5138755],[11.0597159,49.5156448],[11.0784073,49.5197172],[11.0227001,49.537898],[10.9887326,49.5365366]],[[11.1769349,49.3921808],[11.1845429,49.3970806],[11.1865365,49.3934492],[11.1769349,49.3921808]]],[[[11.1126396,49.3664714],[11.1138552,49.3650252],[11.1142166,49.3652239],[11.1126396,49.3664714]]],[[[11.1301695,49.4937153],[11.1299358,49.4925741],[11.1309705,49.4934039],[11.1301695,49.4937153]]],[[[11.2482436,49.426434],[11.2601542,49.4252897],[11.2591595,49.4094147],[11.2623111,49.4164389],[11.2825957,49.4165989],[11.2663441,49.4405976],[11.2486745,49.4407694],[11.2574019,49.4296693],[11.2482436,49.426434]]]]}},{"type":"Feature","properties":{"name":"Bonn","country":"DE"},"geometry":{"type":"Polygon","coordinates":[[[7.0225354,50.7064715],[7.0390822,50.6885072],[7.0313678,50.6786221],[7.0442484,50.6743836],[7.0374315,50.6617122],[7.0248201,50.6654196],[7.0258978,50.654341],[7.0592999,50.6384339],[7.057059,50.6330391],[7.0752012,50.6372222],[7.1053586,50.6595385],[7.1223771,50.6561779],[7.1277063,50.6471979],[7.1580597,50.6551402],[7.1943079,50.6424865],[7.2106794,50.64975],[7.1682649,50.7033691],[7.1969669,50.7133371],[7.1906734,50.7271931],[7.2090824,50.7367442],[7.2038815,50.744502],[7.158327,50.7530539],[7.1254004,50.7744233],[7.1025288,50.761799],[7.0667005,50.7708455],[7.0383677,50.7590876],[7.0296343,50.726082],[7.0403307,50.7188577],[7.0225354,50.7064715]]]}},{"type":"Feature","properties":{"name":"Münster","country":"DE"},"geometry":{"type":"Polygon","coordinates":[[[7.4737853,51.9416323],[7.5116886,51.9357947],[7.5031955,51.9272844],[7.509825,51.8942744],[7.5353092,51.9010185],[7.5467852,51.8698079],[7.5645652,51.8646184],[7.5575374,51.8556418],[7.6106523,51.8401448],[7.6160577,51.8567999],[7.6471907,51.8608619],[7.6372068,51.8676092],[7.6507658,51.8787018],[7.6996877,51.8690703],[7.7099257,51.8754356],[7.6887029,51.8884281],[7.6870334,51.9023993],[7.7046606,51.9080251],[7.7577465,51.8976889],[7.7566992,51.9115523],[7.7743634,51.9221725],[7.7587516,51.9417081],[7.7488164,51.9398232],[7.7448714,51.9656247],[7.733996,51.9682742],[7.7291424,51.9825613],[7.7474321,51.9978534],[7.7356982,52.0038244],[7.7376518,52.0115929],[7.7208834,52.0321993],[7.6864144,52.0329293],[7.6511702,52.0526496],[7.6310977,52.0410232],[7.5988585,52.0600251],[7.5818496,52.0470094],[7.5699847,52.0489935],[7.5313264,52.0333925],[7.5343586,52.0197334],[7.5133321,52.0087782],[7.5226519,51.9780464],[7.4805994,51.957445],[7.4737853,51.9416323]]]}},{"type":"Feature","properties":{"name":"Aachen","country":"DE"},"geometry":{"type":"Polygon","coordinates":[[[5.9748726,50.7980434],[6.0276617,50.7741646],[6.0183606,50.763356],[6.027547,50.7480118],[6.0404419,50.7455029],[6.0331508,50.7309562],[6.0373796,50.7195522],[6.0444645,50.728433],[6.1146963,50.7222756],[6.1658332,50.6621373],[6.1940216,50.6636311],[6.1930797,50.680643],[6.2181081,50.6981555],[6.1900609,50.7373091],[6.1922632,50.7501943],[6.2043553,50.7596295],[6.1745342,50.7863319],[6.1911818,50.7962937],[6.1904859,50.8071366],[6.0991312,50.8044431],[6.105352,50.8081433],[6.1048141,50.813208],[6.0756824,50.8077152],[6.0752848,50.822026],[6.0629153,50.8266186],[6.0680739,50.8347325],[6.0550513,50.8572342],[6.0189249,50.8462664],[6.0247583,50.8138885],[6.0036287,50.8014624],[5.9848905,50.8104262],[5.9748726,50.7980434]]]}},{"type":"Feature","properties":{"name":"Freiburg","country":"DE"},"geometry":{"type":"Polygon","coordinates":[[[7.6620055,47.9656508],[7.6986534,47.959687],[7.7367796,47.9801153],[7.767946,47.9784665],[7.8021357,47.9640765],[7.8365092,47.9725622],[7.8346282,47.9666029],[7.855681,47.9500933],[7.8788515,47.9484607],[7.8623626,47.915647],[7.8715013,47.9045125],[7.884461,47.9039563],[7.9084115,47.9143185],[7.9082858,47.9284735],[7.9248698,47.9400916],[7.9147311,47.9629421],[7.9245109,47.9707408],[7.9139845,47.9794096],[7.9283062,47.9858339],[7.928627,48.008547],[7.9218818,48.0156302],[7.9017171,48.0100224],[7.8740435,48.0152096],[7.8843701,48.0213905],[7.8979965,48.0155423],[7.8544157,48.0366459],[7.8503659,48.0513614],[7.8149535,48.0710579],[7.7963391,48.0609551],[7.7903396,48.0273622],[7.7693628,48.0143393],[7.7335904,48.038767],[7.7084079,48.0352964],[7.7016318,48.0265478],[7.7084084,48.0110329],[7.6796204,47.9965901],[7.6848783,47.9880701],[7.6784773,47.9750609],[7.6620055,47.9656508]]]}},{"type":"Feature","properties":{"name":"Heidelberg","country":"DE"},"geometry":{"type":"Polygon","coordinates":[[[8.5731788,49.4236],[8.5749055,49.4126587],[8.6114614,49.4054669],[8.633025,49.4149279],[8.6382951,49.3927199],[8.6475003,49.3885366],[8.6068825,49.3767513],[8.6010036,49.366203],[8.6244659,49.3590632],[8.6252401,49.3520305],[8.6455781,49.3710493],[8.6567317,49.3623169],[8.6516717,49.3533923],[8.6724425,49.3615211],[8.7241961,49.3576019],[8.7304043,49.3679334],[8.7244792,49.3737472],[8.7690101,49.3791044],[8.7632129,49.388002],[8.7939863,49.4072014],[8.7891234,49.4302714],[8.7662265,49.4373409],[8.7617155,49.4507576],[8.7677145,49.454097],[8.7547049,49.4596419],[8.7416161,49.4576157],[8.7457,49.4468912],[8.7151742,49.4524202],[8.6465518,49.4366257],[8.6287032,49.4431153],[8.6097328,49.4242417],[8.5929629,49.4301327],[8.5731788,49.4236]]]}},{"type":"Feature","properties":{"name":"Mannheim","country":"DE"},"geometry":{"type":"Polygon","coordinates":[[[8.4141602,49.5582954],[8.4428764,49.4927873],[8.463894,49.4706789],[8.4430821,49.4577863],[8.4455213,49.4474362],[8.5041824,49.4402564],[8.5081541,49.4319162],[8.4973889,49.4111959],[8.5225547,49.4182341],[8.5291143,49.4103401],[8.5734303,49.4157628],[8.5731788,49.4236],[8.5845202,49.4280668],[8.5854749,49.4406029],[8.5777644,49.445334],[8.5899902,49.4595376],[8.5436716,49.477255],[8.5529334,49.4909229],[8.5870329,49.5024677],[8.5831589,49.5193707],[8.5422176,49.5281369],[8.4950278,49.5731118],[8.4817629,49.5744961],[8.4645374,49.5895065],[8.4224969,49.5837268],[8.4141602,49.5582954]]]}},{"type":"Feature","properties":{"name":"Mainz","country":"DE"},"geometry":{"type":"Polygon","coordinates":[[[8.1430883,49.9785799],[8.1486783,49.9637483],[8.1790669,49.967618],[8.1897681,49.9512151],[8.2169244,49.9572253],[8.2269806,49.9480022],[8.2431913,49.9474019],[8.2450284,49.939719],[8.2391579,49.9399812],[8.2246846,49.9094155],[8.2288811,49.9001166],[8.2486833,49.8954762],[8.2596413,49.9170679],[8.2794665,49.9313272],[8.2798851,49.9409378],[8.2959783,49.9421862],[8.2974917,49.9486708],[8.3091889,49.9478138],[8.3097614,49.9407029],[8.3431435,49.9402874],[8.3234991,49.972871],[8.2358933,50.0306053],[8.1901118,50.0352817],[8.2045306,50.0275547],[8.1935172,50.0213989],[8.1965775,50.0167436],[8.1825052,50.0058007],[8.1562943,50.0017203],[8.1430883,49.9785799]]]}},{"type":"Feature","properties":{"name":"Tübingen","country":"DE"},"geometry":{"type":"Polygon","coordinates":[[[8.9645157,48.5171005],[8.9973015,48.5139639],[8.9988641,48.5064093],[8.9841764,48.507607],[8.9747327,48.4920646],[8.9905886,48.4896772],[8.9849921,48.4795906],[9.0017255,48.4535606],[9.0211226,48.4506559],[9.0187655,48.4590801],[9.0503983,48.4668921],[9.0663218,48.4857845],[9.0817109,48.4858494],[9.0746493,48.4982057],[9.0888127,48.5120245],[9.1027676,48.5135505],[9.107334,48.5294599],[9.1300447,48.5348322],[9.1245593,48.5416076],[9.1310745,48.5442594],[9.1180074,48.5566546],[9.1283281,48.5693896],[9.1262155,48.5816893],[9.093976,48.5785637],[9.0930181,48.5861857],[9.0520587,48.5934073],[9.0168901,48.5617041],[9.0195854,48.5556709],[8.9953818,48.5525272],[8.9761428,48.5397219],[8.9645157,48.5171005]],[[8.9865502,48.5165785],[8.980408,48.521596],[8.9969455,48.5209983],[8.9865502,48.5165785]],[[9.0050599,48.5101882],[9.0066423,48.516196],[9.0127024,48.5107337],[9.0050599,48.5101882]]]}},{"type":"Feature","properties":{"name":"Ulm","country":"DE"},"geometry":{"type":"Polygon","coordinates":[[[9.8424917,48.3598384],[9.8500108,48.3534137],[9.8856204,48.3532655],[9.8905912,48.3411643],[9.916099,48.3504142],[9.9304423,48.3318525],[9.9067616,48.3194152],[9.9650544,48.3077043],[9.9589639,48.3160005],[9.9913094,48.3280668],[9.9736299,48.336985],[9.9862202,48.342489],[9.9832685,48.3482362],[9.998088,48.3494102],[10.0004298,48.3617771],[9.9882567,48.3705177],[9.9759334,48.3635457],[9.9698157,48.3794585],[10.014059,48.4037316],[10.0177255,48.4182559],[10.0417202,48.4298968],[10.0279009,48.4368804],[10.0382533,48.4443345],[10.0361792,48.450963],[10.021223,48.4645388],[9.9804295,48.4629512],[9.9803408,48.4685153],[9.9729712,48.4675034],[9.975408,48.4590174],[9.9635884,48.4598318],[9.9675,48.4508205],[9.9595052,48.4469775],[9.9396531,48.4525002],[9.9150519,48.4427256],[9.9069662,48.4231584],[9.9171775,48.4212451],[9.9383388,48.4335104],[9.940972,48.4264589],[9.9254987,48.4218162],[9.9339184,48.4214794],[9.9428478,48.4067922],[9.9152402,48.4094865],[9.9009944,48.3956883],[9.8750159,48.3966825],[9.8736124,48.3814482],[9.8475441,48.3747623],[9.8562449,48.3711391],[9.8424917,48.3598384]]]}},{"type":"Feature","properties":{"name":"Regensburg","country":"DE"},"geometry":{"type":"Polygon","coordinates":[[[12.0290745,49.011023],[12.0417607,48.9991352],[12.0638318,48.9977568],[12.0704761,48.9709624],[12.105748,48.9762579],[12.0969103,48.9724046],[12.099676,48.9667457],[12.1187599,48.9758813],[12.1267437,48.9669455],[12.1519753,48.9779329],[12.1758253,48.9722479],[12.1902175,48.9899722],[12.1852512,48.9921184],[12.1916078,49.0077992],[12.158515,49.0192441],[12.1680357,49.0317167],[12.1643779,49.0485661],[12.1377139,49.0495245],[12.1402156,49.0684065],[12.1319469,49.0764158],[12.1288265,49.0668467],[12.0942762,49.0636103],[12.0992281,49.0432133],[12.081567,49.0320408],[12.0614598,49.0350336],[12.0466535,49.0489981],[12.0314888,49.0348265],[12.0451885,49.0239793],[12.0290745,49.011023]]]}},{"type":"Feature","properties":{"name":"Göttingen","country":"DE"},"geometry":{"type":"Polygon","coordinates":[[[9.8001404,51.5350501],[9.8153937,51.5188793],[9.8532069,51.5103791],[9.9124427,51.5182986],[9.9475771,51.4830221],[9.9881227,51.512041],[9.9997522,51.5109942],[10.0024229,51.5211528],[10.0536056,51.5350379],[10.0407419,51.5583048],[10.0210286,51.5618366],[10.0342412,51.5785865],[10.0036409,51.5908204],[9.9677644,51.5885429],[9.9476562,51.577102],[9.9271619,51.5813431],[9.9185876,51.5712763],[9.9096799,51.5761846],[9.8703291,51.5604384],[9.8470251,51.5756176],[9.831743,51.5757124],[9.8113157,51.5629423],[9.8187769,51.5564694],[9.8001404,51.5350501]]]}},{"type":"Feature","properties":{"name":"Kiel","country":"DE"},"geometry":{"type":"Polygon","coordinates":[[[10.0329284,54.3495883],[10.1013468,54.3474136],[10.1073769,54.3369071],[10.0924716,54.32747],[10.0695879,54.3252472],[10.0531387,54.3343565],[10.0419923,54.3115855],[10.0545905,54.3101939],[10.045185,54.3056244],[10.0592609,54.2963545],[10.0579211,54.288193],[10.0943605,54.2868707],[10.0835383,54.2683005],[10.0946227,54.2632004],[10.1520503,54.2507055],[10.1587514,54.2591392],[10.1811658,54.252401],[10.2015589,54.2670536],[10.1988057,54.2778713],[10.2096859,54.2801341],[10.1902089,54.2968645],[10.1889488,54.3096066],[10.2169482,54.3199326],[10.2181061,54.3290757],[10.2019325,54.324621],[10.2061516,54.3408602],[10.1742321,54.3457037],[10.1517627,54.3632936],[10.1915325,54.3900662],[10.1885806,54.4124851],[10.1712974,54.4333026],[10.1576716,54.4288754],[10.1464414,54.4107419],[10.1360295,54.4105625],[10.1424062,54.3874169],[10.1272508,54.3733815],[10.0724518,54.3716447],[10.062014,54.360163],[10.0355775,54.3597472],[10.0329284,54.3495883]]]}},{"type":"Feature","properties":{"name":"Rostock","country":"DE"},"geometry":{"type":"Polygon","coordinates":[[[11.998369,54.174112],[12.032977,54.163299],[12.0196007,54.1537153],[12.036684,54.135116],[12.0331856,54.1270096],[12.019571,54.125012],[12.037115,54.116268],[12.037062,54.107628],[12.054817,54.102971],[12.047774,54.091641],[12.07364,54.067385],[12.063888,54.059872],[12.072924,54.064326],[12.07743,54.052723],[12.096616,54.050805],[12.145183,54.058375],[12.1652742,54.0710631],[12.190467,54.069175],[12.198935,54.080854],[12.194335,54.109808],[12.171479,54.115692],[12.172935,54.128872],[12.190089,54.147973],[12.1765365,54.1627168],[12.2000595,54.1689152],[12.2131781,54.1851141],[12.2263992,54.1792282],[12.2574568,54.1826162],[12.2954016,54.1953735],[12.263443,54.215058],[12.267162,54.241596],[12.2012937,54.2444795],[12.1145415,54.1799966],[12.0911572,54.1872058],[12.0688667,54.1789933],[11.998369,54.174112]]]}},{"type":"Feature","properties":{"name":"Magdeburg","country":"DE"},"geometry":{"type":"MultiPolygon","coordinates":[[[[11.5172379,52.0786715],[11.5209836,52.0672897],[11.5460775,52.0616972],[11.554276,52.0694212],[11.5999063,52.0697851],[11.6458787,52.0237486],[11.6945925,52.0499445],[11.7083868,52.0418135],[11.7334706,52.0422104],[11.7415591,52.0470504],[11.732525,52.0539974],[11.7460771,52.0531028],[11.7565755,52.0642071],[11.7488364,52.0726614],[11.7639936,52.0742325],[11.763359,52.076564],[11.7498804,52.0793915],[11.7467669,52.0809053],[11.7445835,52.0817951],[11.7433543,52.0824308],[11.7405964,52.0841879],[11.7393027,52.0851951],[11.7360085,52.090488],[11.7482661,52.0933125],[11.7440888,52.1008293],[11.7194307,52.1023111],[11.7147558,52.1145713],[11.7160187,52.1230071],[11.7222417,52.1341333],[11.7233524,52.1378572],[11.7219582,52.1400733],[11.7239844,52.1421344],[11.7029843,52.1483996],[11.7118534,52.1596714],[11.7043698,52.167257],[11.7120862,52.1690494],[11.6873723,52.1870232],[11.7051424,52.199488],[11.689568,52.1989664],[11.6735079,52.2271605],[11.6439038,52.2282841],[11.635952,52.2283408],[11.6462796,52.199915],[11.5610599,52.1683743],[11.5606374,52.1581328],[11.5517761,52.1546143],[11.560904,52.1420661],[11.546639,52.1423415],[11.5300691,52.1027599],[11.5328958,52.0938146],[11.5172379,52.0786715]],[[11.7225959,52.1363095],[11.7226507,52.1371298],[11.7228699,52.1363417],[11.7225959,52.1363095]]],[[[11.7459429,52.0899972],[11.7421361,52.0876156],[11.7462848,52.0895506],[11.7459429,52.0899972]]],[[[11.7463262,52.089492],[11.742215,52.0871285],[11.7465768,52.0891424],[11.7463262,52.089492]]],[[[11.7471964,52.0883119],[11.7426563,52.0844255],[11.7482019,52.0869508],[11.7471964,52.0883119]]],[[[11.7491021,52.0857871],[11.7453624,52.0815188],[11.7504467,52.0839291],[11.7491021,52.0857871]]],[[[11.7495465,52.0923841],[11.7463571,52.0896916],[11.7511741,52.0914088],[11.7495465,52.0923841]]]]}},{"type":"Feature","properties":{"name":"Erfurt","country":"DE"},"geometry":{"type":"Polygon","coordinates":[[[10.8546679,51.0254948],[10.8640097,51.0006015],[10.8836506,51.0006228],[10.8921428,50.9902159],[10.863621,50.9773709],[10.8656266,50.9647101],[10.8937419,50.9605593],[10.9004987,50.9411992],[10.9387155,50.946909],[10.9587679,50.9343328],[10.9642206,50.9214541],[10.931819,50.9096397],[10.9360946,50.8949188],[10.9476436,50.8917836],[10.9759308,50.8904895],[10.9703801,50.8953945],[10.98014,50.9043256],[10.9993506,50.9080008],[11.1101744,50.912967],[11.1119619,50.9299935],[11.1535116,50.9248177],[11.135783,50.9488758],[11.1340401,50.9724812],[11.1751358,50.9889225],[11.1633846,51.002376],[11.1735288,51.0182168],[11.1446885,51.0179619],[11.1494489,51.0151148],[11.1240839,51.0087889],[11.1245131,51.0223178],[11.1013692,51.0335752],[11.0977728,51.0524901],[11.0880228,51.0513639],[11.0916555,51.0652299],[11.0808159,51.065629],[11.0815281,51.0737549],[11.0666948,51.0795272],[11.0436183,51.079877],[11.0406333,51.0651287],[11.0238538,51.0673075],[11.0156152,51.0594612],[10.9924075,51.0591121],[10.9906734,51.0681993],[10.9752639,51.064796],[10.9861904,51.0432105],[10.9322948,51.0307204],[10.9294488,51.0176799],[10.9240126,51.0142924],[10.8986071,51.0251078],[10.8546679,51.0254948]]]}},{"type":"Feature","properties":{"name":"Kassel","country":"DE"},"geometry":{"type":"MultiPolygon","coordinates":[[[[9.3510229,51.3071287],[9.3756205,51.2814381],[9.3886515,51.2855361],[9.423635,51.2691179],[9.4827147,51.2603806],[9.4901938,51.2841057],[9.496257,51.2758157],[9.5214846,51.2719516],[9.5315435,51.2778033],[9.5205717,51.2837772],[9.559334,51.2934949],[9.5605777,51.3114129],[9.5306515,51.3181212],[9.5438686,51.3282789],[9.5669976,51.3285929],[9.5696647,51.3380377],[9.5512033,51.3529423],[9.5381739,51.3378053],[9.5039247,51.3427912],[9.4961461,51.3526373],[9.4660929,51.3424557],[9.3967791,51.3537551],[9.3785994,51.3446925],[9.3760914,51.3502757],[9.3690635,51.348652],[9.381977,51.3197348],[9.3556582,51.316139],[9.3510229,51.3071287]]],[[[9.5289975,51.3642469],[9.5303049,51.3632421],[9.530509,51.3633411],[9.5289975,51.3642469]]],[[[9.5303119,51.3648209],[9.5455816,51.3585341],[9.5508289,51.362272],[9.5384842,51.369039],[9.5303119,51.3648209]]]]}},{"type":"Feature","properties":{"name":"Bielefeld","country":"DE"},"geometry":{"type":"Polygon","coordinates":[[[8.3778164,51.9728058],[8.3962674,51.9574671],[8.419659,51.9599155],[8.4271895,51.9446487],[8.4669785,51.9503913],[8.4697193,51.9435996],[8.4868596,51.9453143],[8.50599,51.9148711],[8.5327674,51.9264569],[8.5465773,51.9249558],[8.5450244,51.9154958],[8.5620307,51.9253841],[8.5814392,51.9201354],[8.600057,51.9251815],[8.6252547,51.9358705],[8.6496867,51.9593103],[8.6410573,51.9671039],[8.6540591,51.9775862],[8.6488432,51.9954405],[8.6622251,52.0124888],[8.6421208,52.0266307],[8.6606468,52.0393554],[8.6633538,52.0538222],[8.6170066,52.0673422],[8.621701,52.0757128],[8.6078766,52.0773851],[8.6081353,52.0883916],[8.5706613,52.0757603],[8.5633474,52.0915386],[8.5728954,52.0978278],[8.5689636,52.1062045],[8.5599026,52.1087077],[8.5546561,52.1015152],[8.5158634,52.1146588],[8.4884123,52.1093891],[8.4715475,52.100781],[8.4724637,52.0904404],[8.459557,52.0867322],[8.4579139,52.0728836],[8.44651,52.0674177],[8.4533742,52.0501076],[8.420952,52.0436854],[8.4359925,52.0274235],[8.4613701,52.0188659],[8.4509395,51.9889608],[8.4058474,51.9696429],[8.3778164,51.9728058]]]}},{"type":"Feature","properties":{"name":"Bochum","country":"DE"},"geometry":{"type":"Polygon","coordinates":[[[7.1020817,51.4809374],[7.1140572,51.4720106],[7.1095557,51.4593792],[7.1338879,51.4421569],[7.1192529,51.4309026],[7.1549795,51.4137656],[7.1818609,51.4197935],[7.2497157,51.4116698],[7.2934209,51.4438005],[7.2875624,51.4535321],[7.3420393,51.4569652],[7.3492459,51.466012],[7.3428752,51.493138],[7.330551,51.4964819],[7.3235273,51.4889387],[7.3172546,51.5060296],[7.3039896,51.5042956],[7.3034717,51.5157168],[7.3145391,51.5234053],[7.2948003,51.5313721],[7.2371855,51.5180303],[7.2023268,51.5218317],[7.1708853,51.5044074],[7.1385297,51.5059704],[7.1377895,51.4913024],[7.1020817,51.4809374]]]}},{"type":"Feature","properties":{"name":"Duisburg","country":"DE"},"geometry":{"type":"Polygon","coordinates":[[[6.6256311,51.4109734],[6.6405058,51.39815],[6.6371437,51.3858456],[6.6740402,51.3885613],[6.6681571,51.3743939],[6.6795804,51.3768626],[6.6541922,51.3575978],[6.6672892,51.3467444],[6.7144938,51.3333827],[6.7472875,51.3523955],[6.781502,51.3425529],[6.7918147,51.3432571],[6.793815,51.35222],[6.8302507,51.3522928],[6.8244796,51.3675052],[6.8152553,51.3691092],[6.8183095,51.4384236],[6.8066678,51.4472512],[6.8221553,51.4688919],[6.8085753,51.4746188],[6.8102964,51.4841796],[6.8233992,51.4875692],[6.8216229,51.5045631],[6.7774386,51.5229829],[6.7840016,51.5333883],[6.7471391,51.5360324],[6.6864934,51.5600691],[6.6767183,51.538279],[6.699589,51.5244203],[6.6965269,51.5191161],[6.6278433,51.5035306],[6.6421199,51.4966688],[6.6363414,51.4907646],[6.6427711,51.481494],[6.6527179,51.4893265],[6.6662307,51.483603],[6.6548979,51.4739359],[6.6673488,51.474179],[6.6787416,51.4515894],[6.677693,51.4406745],[6.6686858,51.4383067],[6.6735138,51.4342912],[6.6663961,51.4112698],[6.6294372,51.4196614],[6.6256311,51.4109734]]]}},{"type":"Feature","properties":{"name":"Saarbrücken","country":"DE"},"geometry":{"type":"Polygon","coordinates":[[[6.8276387,49.221709],[6.8369722,49.2128192],[6.8627457,49.2222495],[6.8926111,49.2088272],[6.9187594,49.222736],[6.9382298,49.2224477],[6.9595947,49.2031179],[6.9753345,49.2093795],[7.0109133,49.1879496],[7.0350314,49.1914361],[7.0295099,49.1766656],[7.0441007,49.1727807],[7.0755637,49.1721922],[7.0962135,49.1814303],[7.1119975,49.176195],[7.1070524,49.1884965],[7.1182381,49.1928963],[7.1288784,49.212043],[7.1380203,49.2128541],[7.1223423,49.2224528],[7.1261631,49.22858],[7.1285554,49.2427625],[7.1307791,49.2439224],[7.1303471,49.2452537],[7.1082128,49.2563988],[7.0870473,49.2456272],[7.0794054,49.2497974],[7.0832078,49.255897],[7.0689489,49.2554081],[7.0542996,49.286922],[7.0396835,49.2945813],[7.014515,49.2832669],[7.0038243,49.2865388],[7.0166324,49.2953195],[6.9918604,49.3220676],[6.9703964,49.31507],[6.9559517,49.2897498],[6.9328205,49.2867154],[6.9061864,49.2671017],[6.9081308,49.2462108],[6.8862583,49.2429752],[6.8787485,49.2291675],[6.8486307,49.2327247],[6.8276387,49.221709]]]}},{"type":"Feature","properties":{"name":"Wiesbaden","country":"DE"},"geometry":{"type":"Polygon","coordinates":[[[8.1106718,50.0801644],[8.1114151,50.0729655],[8.1237582,50.0742813],[8.1571162,50.0550774],[8.1751588,50.0340884],[8.2433881,50.0284268],[8.2907728,49.9932374],[8.3301923,50.0009776],[8.332273,50.0265108],[8.3814049,50.0468217],[8.3612761,50.0504159],[8.3544465,50.066215],[8.3760068,50.0664593],[8.3861621,50.0805129],[8.3806048,50.1023205],[8.3620708,50.0981556],[8.3594143,50.1065622],[8.3541248,50.1039319],[8.3433239,50.1209228],[8.3494383,50.1293415],[8.3177785,50.1382188],[8.3274624,50.1445757],[8.3240087,50.1507443],[8.2758872,50.1518098],[8.2410169,50.1484612],[8.2328716,50.1383274],[8.1847086,50.1211614],[8.1601146,50.1242491],[8.1121711,50.093651],[8.1311126,50.0919793],[8.137803,50.0875729],[8.1337196,50.0825209],[8.1106718,50.0801644]]]}},{"type":"Feature","properties":{"name":"Wien","country":"AT"},"geometry":{"type":"Polygon","coordinates":[[[16.181831,48.1711198],[16.1961889,48.1639621],[16.1982422,48.1541378],[16.2034635,48.1555065],[16.2232057,48.153185],[16.2098585,48.1476248],[16.2207895,48.1355562],[16.2384279,48.1371556],[16.2146658,48.1258865],[16.2189135,48.1237615],[16.2711035,48.1338515],[16.3118098,48.1194453],[16.3246033,48.1377929],[16.408297,48.1179069],[16.4370202,48.1199322],[16.43313,48.1378785],[16.455355,48.1395149],[16.4776252,48.1574352],[16.5165442,48.1584543],[16.5760306,48.1352198],[16.5775132,48.150425],[16.5730584,48.1631942],[16.549888,48.1644615],[16.5494562,48.1770558],[16.5410261,48.176575],[16.544747,48.1728574],[16.536692,48.1734491],[16.5417664,48.1914411],[16.5362709,48.2004367],[16.5527397,48.2390011],[16.5394106,48.2428396],[16.5469749,48.2629977],[16.5128534,48.267838],[16.5066712,48.273607],[16.5149068,48.2855411],[16.4964491,48.2924897],[16.4812062,48.2935322],[16.4812269,48.273435],[16.472278,48.2763884],[16.4404077,48.2919218],[16.4377522,48.3168088],[16.4199022,48.322656],[16.3817,48.3171148],[16.3862308,48.3017421],[16.3755628,48.2959263],[16.3778682,48.2883226],[16.3671374,48.2868475],[16.3705921,48.2816963],[16.3481253,48.2904811],[16.3289764,48.2771946],[16.2913147,48.271364],[16.285953,48.2671121],[16.2940948,48.2639959],[16.2640584,48.254923],[16.2704239,48.2519363],[16.2566155,48.2398821],[16.2415493,48.2383172],[16.2410531,48.248374],[16.20669,48.2635219],[16.1935158,48.2432482],[16.1991031,48.2285858],[16.1851719,48.2231969],[16.1977769,48.2228839],[16.1977753,48.2142763],[16.2096215,48.2096276],[16.2019311,48.2047958],[16.2073935,48.2023398],[16.1998055,48.1861581],[16.181831,48.1711198]]]}},{"type":"Feature","properties":{"name":"Graz","country":"AT"},"geometry":{"type":"Polygon","coordinates":[[[15.3497141,47.1047452],[15.3637683,47.0992796],[15.3728827,47.0872782],[15.3668691,47.0804764],[15.3799225,47.0745881],[15.3681284,47.0508727],[15.3600513,47.0514502],[15.372932,47.0231188],[15.3987073,47.0162415],[15.4374544,47.0210229],[15.4427594,47.0153125],[15.4557774,47.0215128],[15.460803,47.0118871],[15.4886379,47.0206717],[15.4842665,47.031257],[15.506116,47.0405267],[15.4970517,47.0548948],[15.5086398,47.0676708],[15.5118217,47.0911768],[15.5342006,47.0995416],[15.5256936,47.1030023],[15.5307811,47.1103965],[15.5101635,47.1080711],[15.5212033,47.120135],[15.5151098,47.1284047],[15.427134,47.125695],[15.4008433,47.1345],[15.39164,47.1129039],[15.3592068,47.1194909],[15.3633347,47.1097452],[15.3497141,47.1047452]]]}},{"type":"Feature","properties":{"name":"Linz","country":"AT"},"geometry":{"type":"Polygon","coordinates":[[[14.24572,48.3072619],[14.2587134,48.304796],[14.2682488,48.2907831],[14.261714,48.287992],[14.2813679,48.2803825],[14.2711049,48.2591719],[14.2793506,48.2529462],[14.2627064,48.2467251],[14.2816527,48.2341943],[14.3043225,48.2318436],[14.3246473,48.2113712],[14.3403706,48.2187974],[14.3422143,48.228522],[14.3720976,48.2359593],[14.3868846,48.2306169],[14.3929753,48.2430475],[14.4092169,48.2488678],[14.3444766,48.2836164],[14.3338072,48.3088276],[14.3153825,48.3236948],[14.3606752,48.3247188],[14.3395297,48.3310574],[14.3357297,48.335964],[14.3487106,48.3430134],[14.3285382,48.352848],[14.2954414,48.3546053],[14.2954457,48.378687],[14.2767685,48.347277],[14.2554582,48.3415706],[14.2597071,48.3116628],[14.24572,48.3072619]]]}},{"type":"Feature","properties":{"name":"Salzburg","country":"AT"},"geometry":{"type":"Polygon","coordinates":[[[12.9856478,47.7956103],[13.002641,47.7814548],[13.0000011,47.7628946],[13.0135185,47.7522225],[13.059411,47.7620092],[13.0709798,47.7513224],[13.0790876,47.7550481],[13.0749796,47.7710643],[13.1103703,47.780777],[13.1169638,47.7975388],[13.1275256,47.8007239],[13.1019202,47.81211],[13.0887468,47.8097734],[13.0808317,47.8358128],[13.058702,47.8428998],[13.0565081,47.8331906],[13.0353546,47.8295767],[13.0013973,47.8543925],[13.0032601,47.842582],[12.9890728,47.8319612],[13.0061298,47.8197331],[12.9856478,47.7956103]]]}},{"type":"Feature","properties":{"name":"Innsbruck","country":"AT"},"geometry":{"type":"Polygon","coordinates":[[[11.3016374,47.2704354],[11.35209,47.2500112],[11.3465259,47.2414973],[11.3932405,47.2427684],[11.3873223,47.2271827],[11.3928932,47.212077],[11.406612,47.2213609],[11.4539664,47.213021],[11.4102969,47.2431673],[11.4318947,47.2470334],[11.4291364,47.2523446],[11.4559615,47.2631302],[11.4473884,47.2679105],[11.4479166,47.2863378],[11.4338657,47.2955142],[11.4162362,47.2945803],[11.3996892,47.3152409],[11.4260701,47.3205601],[11.4263573,47.3471033],[11.3577603,47.3601261],[11.3387854,47.3396287],[11.3312467,47.3427079],[11.335959,47.3135805],[11.3075061,47.2937333],[11.3016374,47.2704354]]]}},{"type":"Feature","properties":{"name":"Klagenfurt","country":"AT"},"geometry":{"type":"Polygon","coordinates":[[[14.2102806,46.6693159],[14.2197837,46.6654698],[14.2209231,46.6537903],[14.2431672,46.6538743],[14.2240225,46.643549],[14.2409527,46.635042],[14.243618,46.5996602],[14.2365775,46.5877073],[14.2439612,46.5786069],[14.2786761,46.5846523],[14.2896648,46.5743988],[14.3169427,46.5766761],[14.3264087,46.5936068],[14.319975,46.5965787],[14.3580582,46.6097263],[14.3547398,46.6174732],[14.3907357,46.6190602],[14.387917,46.6265318],[14.4101923,46.6287125],[14.416258,46.6401594],[14.391764,46.6456357],[14.374156,46.6406805],[14.3684055,46.6462506],[14.3746743,46.6535911],[14.3519342,46.6640272],[14.3528743,46.676289],[14.3324579,46.6753923],[14.317862,46.6634108],[14.3174002,46.6692267],[14.2930668,46.6662767],[14.3005031,46.6708822],[14.2921462,46.6743044],[14.2972921,46.6786109],[14.2815108,46.6863398],[14.3060221,46.6986914],[14.2977966,46.6990667],[14.3046824,46.7087065],[14.2730606,46.7075079],[14.2534858,46.6967958],[14.237182,46.7000888],[14.2102806,46.6693159]]]}},{"type":"Feature","properties":{"name":"Villach","country":"AT"},"geometry":{"type":"Polygon","coordinates":[[[13.6936945,46.6074227],[13.7138052,46.5917228],[13.7459289,46.588872],[13.745073,46.5657635],[13.7680394,46.5584933],[13.7934048,46.5681078],[13.8420849,46.5706732],[13.8385342,46.5793638],[13.8603259,46.5835603],[13.9398614,46.5771545],[13.9405886,46.5830164],[13.9792304,46.5929233],[13.9568138,46.5929585],[13.9244261,46.6132055],[13.9222147,46.6231321],[13.9319693,46.6342622],[13.9220586,46.6454202],[13.9446679,46.6527697],[13.9531923,46.665854],[13.8789881,46.6480362],[13.8402666,46.6528734],[13.8090995,46.6682673],[13.799518,46.6620612],[13.8004594,46.6442562],[13.7916555,46.6328762],[13.763919,46.6349771],[13.7281242,46.6219029],[13.7294031,46.6132078],[13.6936945,46.6074227]]]}},{"type":"Feature","properties":{"name":"Wels","country":"AT"},"geometry":{"type":"Polygon","coordinates":[[[13.9635277,48.1826855],[13.9719708,48.1783492],[13.966592,48.1702413],[13.9788976,48.1623038],[13.9671107,48.1518045],[13.973445,48.1471777],[13.9655543,48.1429148],[13.9712613,48.1258189],[13.979763,48.1376459],[14.054045,48.1572926],[14.090759,48.1757353],[14.0773954,48.1814663],[14.0713098,48.1989006],[14.0515525,48.1963464],[14.0475402,48.208512],[14.0344865,48.2113139],[14.0162894,48.2025],[13.996438,48.205452],[13.9855559,48.1952356],[13.9918914,48.1900637],[13.9635277,48.1826855]]]}},{"type":"Feature","properties":{"name":"Zürich","country":"CH"},"geometry":{"type":"Polygon","coordinates":[[[8.4480061,47.3802489],[8.4702245,47.3739521],[8.4642685,47.3672756],[8.4977381,47.3452057],[8.5031821,47.3202187],[8.5862951,47.352882],[8.6254413,47.3546647],[8.6147042,47.3615093],[8.6166519,47.3682801],[8.606042,47.3687236],[8.5831589,47.3883067],[8.5963814,47.3966313],[8.5972792,47.4063087],[8.5730014,47.4114383],[8.5736749,47.4200362],[8.5632452,47.4156468],[8.5542025,47.4208008],[8.5553504,47.4306622],[8.5431082,47.4328844],[8.4857915,47.4310272],[8.4901866,47.422336],[8.4691307,47.4169272],[8.4781488,47.4038749],[8.4651584,47.3982885],[8.4730103,47.395064],[8.4480061,47.3802489]]]}},{"type":"Feature","properties":{"name":"Genf","country":"CH"},"geometry":{"type":"Polygon","coordinates":[[[6.1192383,46.2162121],[6.1119392,46.1969535],[6.1273756,46.1970961],[6.1276534,46.1877679],[6.1530919,46.1864394],[6.1564817,46.1778182],[6.1758296,46.2013307],[6.172369,46.21189],[6.1619071,46.2152225],[6.1667079,46.2244654],[6.1330815,46.231885],[6.1138401,46.2202721],[6.1192383,46.2162121]]]}},{"type":"Feature","properties":{"name":"Basel","country":"CH"},"geometry":{"type":"Polygon","coordinates":[[[7.5546595,47.5643666],[7.5645847,47.5570412],[7.5558883,47.5443407],[7.5872696,47.5419057],[7.5827872,47.5319839],[7.5947883,47.5192971],[7.6223107,47.5397776],[7.6176173,47.5586485],[7.6341484,47.5655498],[7.6226915,47.5696303],[7.6245533,47.5794211],[7.604882,47.5778737],[7.6048159,47.5849295],[7.5890388,47.5898969],[7.5846527,47.5755281],[7.5664893,47.5776703],[7.5546595,47.5643666]]]}},{"type":"Feature","properties":{"name":"Bern","country":"CH"},"geometry":{"type":"Polygon","coordinates":[[[7.2943145,46.9237564],[7.3393683,46.9196675],[7.3785348,46.9327183],[7.4014835,46.9211927],[7.4146941,46.9368183],[7.4376403,46.9307415],[7.4585674,46.934836],[7.4707683,46.9255044],[7.4766667,46.9369496],[7.4955563,46.9396169],[7.4770135,46.9544586],[7.4845237,46.9701571],[7.4701907,46.9674116],[7.4680382,46.9758258],[7.454649,46.9778182],[7.4506746,46.9901535],[7.4412738,46.9798224],[7.4483835,46.9756393],[7.4378522,46.9684302],[7.4281729,46.9738048],[7.3832097,46.9663014],[7.3513567,46.9485481],[7.3068603,46.9403709],[7.3061586,46.9309487],[7.2943145,46.9237564]]]}},{"type":"Feature","properties":{"name":"Luzern","country":"CH"},"geometry":{"type":"MultiPolygon","coordinates":[[[[8.2065198,47.0723426],[8.2484885,47.0535305],[8.2382546,47.0473942],[8.2397074,47.0386601],[8.2793704,47.0466604],[8.2983301,47.039594],[8.3025796,47.0264009],[8.3132185,47.0356619],[8.3318985,47.0317232],[8.3577305,47.0397703],[8.3498547,47.0473573],[8.3572031,47.0569009],[8.3453632,47.067972],[8.2968157,47.0626277],[8.272831,47.0722684],[8.2623722,47.0648014],[8.2432155,47.0680416],[8.2466953,47.0726073],[8.2272594,47.083522],[8.2065198,47.0723426]]],[[[8.3826992,47.0013773],[8.4260132,46.9981409],[8.4279853,47.0172075],[8.3837987,47.0177149],[8.3826992,47.0013773]]]]}},{"type":"Feature","properties":{"name":"Lausanne","country":"CH"},"geometry":{"type":"MultiPolygon","coordinates":[[[[6.583863,46.5518783],[6.5970929,46.5677392],[6.6178148,46.5660935],[6.6299789,46.5786358],[6.601917,46.5812675],[6.583863,46.5518783]]],[[[6.5842402,46.5207628],[6.5850506,46.4555755],[6.6406113,46.4548726],[6.6393566,46.5103993],[6.6536688,46.51329],[6.691257,46.5445503],[6.698167,46.5426146],[6.7208093,46.5804063],[6.7002299,46.5811061],[6.6603166,46.6025814],[6.6464504,46.5902798],[6.659489,46.5745945],[6.6571395,46.5615924],[6.6737735,46.5654148],[6.6696318,46.5608495],[6.6855973,46.5562027],[6.6848165,46.5490479],[6.6742568,46.5379857],[6.6468052,46.5467489],[6.6288656,46.5388317],[6.6199111,46.5511437],[6.6123328,46.5501221],[6.6075261,46.5284535],[6.5842402,46.5207628]]]]}},{"type":"Feature","properties":{"name":"St. Gallen","country":"CH"},"geometry":{"type":"Polygon","coordinates":[[[9.2915161,47.4040538],[9.3017413,47.3951554],[9.3716789,47.4077097],[9.4037562,47.4012005],[9.429889,47.4096136],[9.4352445,47.4336019],[9.4250083,47.4528627],[9.3975076,47.4516337],[9.3940647,47.4422497],[9.3889601,47.4504815],[9.3743091,47.4519982],[9.3489588,47.426861],[9.3087242,47.4139533],[9.3034872,47.4161698],[9.3082583,47.4210909],[9.2973344,47.4194513],[9.2915161,47.4040538]]]}},{"type":"Feature","properties":{"name":"Winterthur","country":"CH"},"geometry":{"type":"Polygon","coordinates":[[[8.6566078,47.5085845],[8.6605402,47.4901502],[8.6729277,47.4820423],[8.6815933,47.4868197],[8.700086,47.4700224],[8.6929645,47.467211],[8.7062754,47.4668558],[8.7023609,47.4585318],[8.7096237,47.4498267],[8.717898,47.4611809],[8.732839,47.4580474],[8.7542698,47.4688025],[8.7719004,47.4590861],[8.8094561,47.4757616],[8.8082377,47.4909715],[8.7788874,47.502467],[8.799456,47.5107218],[8.7671416,47.5208595],[8.7854455,47.5342332],[8.7681951,47.5470135],[8.7533378,47.547365],[8.7370187,47.5224786],[8.7009899,47.5217355],[8.7013831,47.5325723],[8.6938016,47.5331138],[8.6566078,47.5085845]]]}},{"type":"Feature","properties":{"name":"Lugano","country":"CH"},"geometry":{"type":"Polygon","coordinates":[[[8.8936571,45.958982],[8.8980698,45.9493566],[8.9268807,45.9397406],[8.9521561,45.9779602],[8.9625237,45.9738509],[8.9670775,45.9841493],[8.977255,45.9830369],[8.9946517,45.9716394],[8.9952919,45.9804895],[9.0284607,45.9936259],[9.0095249,46.0372876],[9.0226712,46.0526938],[9.0783019,46.065317],[9.0896151,46.0870156],[9.0724833,46.1179153],[9.0338606,46.1111573],[9.0181144,46.0798094],[8.9797248,46.0649563],[8.9726905,46.030949],[8.9539107,46.0233587],[8.9477665,46.0084807],[8.9277145,46.0189046],[8.915698,46.0035136],[8.9272846,45.999053],[8.9354596,46.0072882],[8.9430126,46.0000831],[8.9382342,45.9893567],[8.9240324,45.9839002],[8.931834,45.9668029],[8.9258385,45.9603234],[8.9248866,45.9675224],[8.8936571,45.958982]],[[8.9363603,45.9862239],[8.9487474,45.9943332],[8.9691596,45.9916837],[8.9670787,45.9841591],[8.9363603,45.9862239]]]}},{"type":"Feature","properties":{"name":"Biel","country":"CH"},"geometry":{"type":"Polygon","coordinates":[[[7.2011054,47.1329366],[7.2155253,47.1271664],[7.232556,47.1346903],[7.2309138,47.1299116],[7.2586597,47.1233046],[7.2707651,47.1318192],[7.2664369,47.1365799],[7.2839037,47.1388899],[7.3121325,47.1630413],[7.2970381,47.1651912],[7.2929769,47.1770456],[7.2532304,47.1679784],[7.2274655,47.1538463],[7.2494451,47.1561673],[7.2403029,47.1472092],[7.2011054,47.1329366]]]}},{"type":"Feature","properties":{"name":"Würzburg","country":"DE"},"geometry":{"type":"Polygon","coordinates":[[[9.8834815,49.7983899],[9.8724287,49.7946355],[9.8961993,49.7891956],[9.9121419,49.7759724],[9.8997011,49.7812184],[9.8744342,49.7715132],[9.8747339,49.7661039],[9.8962719,49.7682511],[9.876735,49.7531338],[9.8824085,49.746863],[9.9024874,49.7475575],[9.9338671,49.7351619],[9.9483048,49.7108805],[9.9646352,49.7106974],[9.9823407,49.7134198],[9.9856794,49.7226197],[9.9730443,49.7308623],[9.9853933,49.7444485],[9.9739827,49.7605842],[9.9535478,49.7676131],[9.9802209,49.7715468],[9.9751606,49.7825214],[9.9856017,49.7901769],[10.0000008,49.7874994],[10.0144286,49.8019676],[10.0037641,49.8193133],[9.9886453,49.8249904],[9.9873637,49.8386346],[9.9416707,49.8333853],[9.9197948,49.8454619],[9.9099496,49.8441395],[9.9072607,49.8253201],[9.8723224,49.8220412],[9.8834815,49.7983899]]]}}]}